NORAD_CAT_ID,OBJECT_NAME,OBJECT_TYPE,EPOCH,MEAN_MOTION,ECCENTRICITY,INCLINATION,RA_OF_ASC_NODE,ARG_OF_PERICENTER,MEAN_ANOMALY,BSTAR,MEAN_MOTION_DOT,MEAN_MOTION_DDOT,TLE_LINE0,TLE_LINE1,TLE_LINE2,SEMIMAJOR_AXIS,PERIOD,APOGEE,PERIGEE,DECAYED
54778.0,STARLINK-5450,PAYLOAD,2024-03-10 16:26:01,15.088577,0.0001427,53.2181,61.8128,75.5483,284.5667,0.00019414,2.805e-05,0.0,0 STARLINK-5450,1 54778U 22175W   24070.68473580  .00002805  00000-0  19414-3 0  9999,2 54778  53.2181  61.8128 0001427  75.5483 284.5667 15.08857700 67917,6917.826,95.436,540.678,538.704,0.0
54778.0,STARLINK-5450,PAYLOAD,2024-03-10 22:47:34,15.08834949,0.0002664,53.2183,60.6256,80.9164,279.213,0.00042461,6.475e-05,0.0,0 STARLINK-5450,1 54778U 22175W   24070.94970470  .00006475  00000-0  42461-3 0  9993,2 54778  53.2183  60.6256 0002664  80.9164 279.2130 15.08834949 70110,6917.896,95.438,541.604,537.918,0.0
54778.0,STARLINK-5450,PAYLOAD,2024-03-11 05:09:08,15.08821421,0.0001345,53.2177,59.4351,89.2202,270.8944,0.00020358,2.952e-05,0.0,0 STARLINK-5450,1 54778U 22175W   24071.21467959  .00002952  00000-0  20358-3 0  9994,2 54778  53.2177  59.4351 0001345  89.2202 270.8944 15.08821421 67998,6917.937,95.439,540.733,538.872,0.0
54778.0,STARLINK-5450,PAYLOAD,2024-03-11 06:44:31,15.08822486,0.0001267,53.2181,59.1382,83.4049,276.7087,0.00022309,3.263e-05,0.0,0 STARLINK-5450,1 54778U 22175W   24071.28091882  .00003263  00000-0  22309-3 0  9993,2 54778  53.2181  59.1382 0001267  83.4049 276.7087 15.08822486 70160,6917.934,95.439,540.675,538.922,0.0
54778.0,STARLINK-5450,PAYLOAD,2024-03-11 16:16:49,15.08848409,0.000139,53.218,57.3543,85.9807,274.1344,3.1328e-05,2.11e-06,0.0,0 STARLINK-5450,1 54778U 22175W   24071.67834944  .00000211  00000-0  31328-4 0  9992,2 54778  53.2180  57.3543 0001390  85.9807 274.1344 15.08848409 68061,6917.855,95.437,540.681,538.758,0.0
54778.0,STARLINK-5450,PAYLOAD,2024-03-12 04:59:55,15.08843125,0.0001361,53.2175,54.9748,87.7523,272.3625,-0.00014359,-2.573e-05,0.0,0 STARLINK-5450,1 54778U 22175W   24072.20827713 -.00002573  00000-0 -14359-3 0  9997,2 54778  53.2175  54.9748 0001361  87.7523 272.3625 15.08843125 68149,6917.871,95.437,540.677,538.794,0.0
54778.0,STARLINK-5450,PAYLOAD,2024-03-12 16:07:36,15.08855243,0.0001457,53.2178,52.8925,83.8145,276.3014,-8.8035e-05,-1.689e-05,0.0,0 STARLINK-5450,1 54778U 22175W   24072.67194467 -.00001689  00000-0 -88035-4 0  9991,2 54778  53.2178  52.8925 0001457  83.8145 276.3014 15.08855243 68217,6917.834,95.437,540.707,538.691,0.0
54778.0,STARLINK-5450,PAYLOAD,2024-03-13 04:50:41,15.08840326,0.0001393,53.2178,50.5134,89.2568,270.8583,-1.7158e-05,-5.61e-06,0.0,0 STARLINK-5450,1 54778U 22175W   24073.20186943 -.00000561  00000-0 -17158-4 0  9997,2 54778  53.2178  50.5134 0001393  89.2568 270.8583 15.08840326 68296,6917.879,95.438,540.708,538.781,0.0
54778.0,STARLINK-5450,PAYLOAD,2024-03-13 15:58:22,15.08847064,0.000149,53.2194,48.4307,97.0254,263.0908,2.6371e-05,1.32e-06,0.0,0 STARLINK-5450,1 54778U 22175W   24073.66554212  .00000132  00000-0  26371-4 0  9994,2 54778  53.2194  48.4307 0001490  97.0254 263.0908 15.08847064 68368,6917.859,95.437,540.755,538.693,0.0
54778.0,STARLINK-5450,PAYLOAD,2024-03-13 22:19:55,15.08827053,0.0001308,53.2207,47.2404,112.3508,247.7623,0.00015952,2.251e-05,0.0,0 STARLINK-5450,1 54778U 22175W   24073.93050794  .00002251  00000-0  15952-3 0  9996,2 54778  53.2207  47.2404 0001308 112.3508 247.7623 15.08827053 70563,6917.92,95.438,540.69,538.88,0.0
54778.0,STARLINK-5450,PAYLOAD,2024-03-14 04:41:28,15.08838793,0.0001593,53.2196,46.0542,103.9438,256.1732,2.3012e-05,7.8e-07,0.0,0 STARLINK-5450,1 54778U 22175W   24074.19546738  .00000078  00000-0  23012-4 0  9995,2 54778  53.2196  46.0542 0001593 103.9438 256.1732 15.08838793 68446,6917.884,95.438,540.851,538.647,0.0
54778.0,STARLINK-5450,PAYLOAD,2024-03-14 22:10:43,15.08834732,0.0001353,53.2186,42.7829,97.0852,263.0294,5.5878e-06,-1.99e-06,0.0,0 STARLINK-5450,1 54778U 22175W   24074.92410945 -.00000199  00000-0  55878-5 0  9997,2 54778  53.2186  42.7829 0001353  97.0852 263.0294 15.08834732 70715,6917.896,95.438,540.697,538.825,0.0
54778.0,STARLINK-5450,PAYLOAD,2024-03-15 04:32:16,15.08833899,0.0001434,53.2189,41.5933,96.6812,263.4344,-9.7109e-05,-1.833e-05,0.0,0 STARLINK-5450,1 54778U 22175W   24075.18907540 -.00001833  00000-0 -97109-4 0  9997,2 54778  53.2189  41.5933 0001434  96.6812 263.4344 15.08833899 68598,6917.899,95.438,540.756,538.772,0.0
54778.0,STARLINK-5450,PAYLOAD,2024-03-15 22:01:30,15.08833351,0.0001499,53.2189,38.3219,102.3422,257.7738,3.2638e-06,-2.36e-06,0.0,0 STARLINK-5450,1 54778U 22175W   24075.91771348 -.00000236  00000-0  32638-5 0  9995,2 54778  53.2189  38.3219 0001499 102.3422 257.7738 15.08833351 70861,6917.901,95.438,540.803,538.729,0.0
54778.0,STARLINK-5450,PAYLOAD,2024-03-16 04:23:02,15.08838653,0.0001405,53.2186,37.1317,100.1718,259.9433,-9.7027e-06,-4.42e-06,0.0,0 STARLINK-5450,1 54778U 22175W   24076.18267145 -.00000442  00000-0 -97027-5 0  9993,2 54778  53.2186  37.1317 0001405 100.1718 259.9433 15.08838653 68745,6917.885,95.438,540.721,538.778,0.0
54778.0,STARLINK-5450,PAYLOAD,2024-03-16 07:33:48,15.08839886,0.0001388,53.2184,36.5363,100.4272,259.6877,-4.6484e-07,-2.95e-06,0.0,0 STARLINK-5450,1 54778U 22175W   24076.31515034 -.00000295  00000-0 -46484-6 0  9999,2 54778  53.2184  36.5363 0001388 100.4272 259.6877 15.08839886 70926,6917.881,95.438,540.706,538.786,0.0
54778.0,STARLINK-5450,PAYLOAD,2024-03-17 02:38:27,15.0883072,0.0001396,53.219,32.9672,99.8746,260.2404,3.3589e-05,2.47e-06,0.0,0 STARLINK-5450,1 54778U 22175W   24077.11003707  .00000247  00000-0  33589-4 0  9992,2 54778  53.2190  32.9672 0001396  99.8746 260.2404 15.08830720 68886,6917.909,95.438,540.739,538.808,0.0
54778.0,STARLINK-5450,PAYLOAD,2024-03-18 04:04:37,15.08839207,0.0001339,53.2192,28.2088,86.9198,273.1947,1.3754e-05,-6.9e-07,0.0,0 STARLINK-5450,1 54778U 22175W   24078.16987669 -.00000069  00000-0  13754-4 0  9991,2 54778  53.2192  28.2088 0001339  86.9198 273.1947 15.08839207 69045,6917.883,95.438,540.674,538.822,0.0
54778.0,STARLINK-5450,PAYLOAD,2024-03-18 05:40:00,15.08841109,0.0001391,53.2194,27.9115,97.7245,262.3905,2.9849e-05,1.87e-06,0.0,0 STARLINK-5450,1 54778U 22175W   24078.23611451  .00000187  00000-0  29849-4 0  9994,2 54778  53.2194  27.9115 0001391  97.7245 262.3905 15.08841109 71215,6917.877,95.437,540.704,538.78,0.0
54778.0,STARLINK-5450,PAYLOAD,2024-03-18 19:58:28,15.0883976,0.0001404,53.2197,25.2383,100.6724,259.4427,4.6386e-05,4.5e-06,0.0,0 STARLINK-5450,1 54778U 22175W   24078.83227444  .00000450  00000-0  46386-4 0  9993,2 54778  53.2197  25.2383 0001404 100.6724 259.4427 15.08839760 71303,6917.881,95.438,540.717,538.775,0.0
54778.0,STARLINK-5450,PAYLOAD,2024-03-19 03:55:24,15.08839415,0.0001362,53.2192,23.7508,97.9545,262.1602,5.8061e-05,6.36e-06,0.0,0 STARLINK-5450,1 54778U 22175W   24079.16347457  .00000636  00000-0  58061-4 0  9996,2 54778  53.2192  23.7508 0001362  97.9545 262.1602 15.08839415 71350,6917.882,95.438,540.689,538.805,0.0
54778.0,STARLINK-5450,PAYLOAD,2024-03-20 00:35:24,15.0884639,0.0001319,53.2192,19.8851,98.3063,261.8079,1.666e-05,-2.3e-07,0.0,0 STARLINK-5450,1 54778U 22175W   24080.02459017 -.00000023  00000-0  16660-4 0  9999,2 54778  53.2192  19.8851 0001319  98.3063 261.8079 15.08846390 69327,6917.861,95.437,540.638,538.813,0.0
54778.0,STARLINK-5450,PAYLOAD,2024-03-20 05:21:33,15.08851723,0.0001341,53.219,18.9924,98.613,261.5015,6.2238e-05,7.03e-06,0.0,0 STARLINK-5450,1 54778U 22175W   24080.22330405  .00000703  00000-0  62238-4 0  9996,2 54778  53.2190  18.9924 0001341  98.6130 261.5015 15.08851723 69355,6917.845,95.437,540.637,538.782,0.0
54778.0,STARLINK-5450,PAYLOAD,2024-03-21 02:01:34,15.08841187,0.0002781,53.2204,15.1195,156.6617,203.4502,-8.5509e-05,-1.649e-05,0.0,0 STARLINK-5450,1 54778U 22175W   24081.08443079 -.00001649  00000-0 -85509-4 0  9991,2 54778  53.2204  15.1195 0002781 156.6617 203.4502 15.08841187 69487,6917.877,95.437,541.666,537.818,0.0
54778.0,STARLINK-5450,PAYLOAD,2024-03-21 13:09:17,15.08837666,0.0001387,53.2202,13.0376,121.5336,238.5792,-8.8031e-05,-1.689e-05,0.0,0 STARLINK-5450,1 54778U 22175W   24081.54811499 -.00001689  00000-0 -88031-4 0  9994,2 54778  53.2202  13.0376 0001387 121.5336 238.5792 15.08837666 71719,6917.888,95.438,540.712,538.793,0.0
54778.0,STARLINK-5450,PAYLOAD,2024-03-21 22:41:35,15.08845846,0.0001842,53.2211,11.2548,137.8087,222.3047,-0.00017364,-3.051e-05,0.0,0 STARLINK-5450,1 54778U 22175W   24081.94555502 -.00003051  00000-0 -17364-3 0  9993,2 54778  53.2211  11.2548 0001842 137.8087 222.3047 15.08845846 71778,6917.863,95.437,541.002,538.453,0.0
54778.0,STARLINK-5450,PAYLOAD,2024-03-22 05:03:07,15.08845103,0.0001847,53.2204,10.0663,134.9356,225.1786,4.0858e-05,3.62e-06,0.0,0 STARLINK-5450,1 54778U 22175W   24082.21050643  .00000362  00000-0  40858-4 0  9995,2 54778  53.2204  10.0663 0001847 134.9356 225.1786 15.08845103 69658,6917.865,95.437,541.008,538.452,0.0
54778.0,STARLINK-5450,PAYLOAD,2024-03-22 19:21:36,15.08830109,0.0001438,53.2208,7.3889,129.2223,230.8897,1.5699e-05,-3.8e-07,0.0,0 STARLINK-5450,1 54778U 22175W   24082.80667768 -.00000038  00000-0  15699-4 0  9998,2 54778  53.2208   7.3889 0001438 129.2223 230.8897 15.08830109 69743,6917.911,95.438,540.77,538.781,0.0
54778.0,STARLINK-5450,PAYLOAD,2024-03-22 22:32:24,15.08816976,0.0001098,53.2216,6.7994,107.789,252.3222,-0.00010223,-1.913e-05,0.0,0 STARLINK-5450,1 54778U 22175W   24082.93917201 -.00001913  00000-0 -10223-3 0  9993,2 54778  53.2216   6.7994 0001098 107.7890 252.3222 15.08816976 71925,6917.951,95.439,540.575,539.056,0.0
54778.0,STARLINK-5450,PAYLOAD,2024-03-23 01:43:10,15.08824663,0.0001108,53.2192,6.2056,124.1531,235.9566,-5.5518e-05,-1.171e-05,0.0,0 STARLINK-5450,1 54778U 22175W   24083.07164679 -.00001171  00000-0 -55518-4 0  9995,2 54778  53.2192   6.2056 0001108 124.1531 235.9566 15.08824663 69780,6917.927,95.439,540.559,539.026,0.0
